[{"OBJECT_NAME":"ONEWEB-0344","OBJECT_ID":"2021-083AA","EPOCH":"2026-03-09T16:59:38.736672","MEAN_MOTION":13.13470934,"ECCENTRICITY":0.00020532,"INCLINATION":87.9024,"RA_OF_ASC_NODE":340.0413,"ARG_OF_PERICENTER":72.2517,"MEAN_ANOMALY":287.8836,"EPHEMERIS_TYPE":0,"CLASSIFICATION_TYPE":"U","NORAD_CAT_ID":49210,"ELEMENT_SET_NO":999,"REV_AT_EPOCH":21783,"BSTAR":-0.0005678056,"MEAN_MOTION_DOT":-1.95e-6,"MEAN_MOTION_DDOT":0},{"OBJECT_NAME":"SL-16 DEB","OBJECT_ID":"1992-093FR","EPOCH":"2026-03-09T15:55:01.433856","MEAN_MOTION":13.27820383,"ECCENTRICITY":0.0462102,"INCLINATION":71.5474,"RA_OF_ASC_NODE":158.5923,"ARG_OF_PERICENTER":120.9239,"MEAN_ANOMALY":243.812,"EPHEMERIS_TYPE":0,"CLASSIFICATION_TYPE":"U","NORAD_CAT_ID":22476,"ELEMENT_SET_NO":999,"REV_AT_EPOCH":59006,"BSTAR":0.0015775124,"MEAN_MOTION_DOT":1.245e-5,"MEAN_MOTION_DDOT":0}]
